{"type": "FeatureCollection", "features": [ {"type": "Feature", "properties": {"norad_id": 31480, "name": "FENGYUN 1C DEB", "group": "fengyun-1c-debris", "lat": -25.904634821824253, "lon": 6.250731436705817, "alt_km": 734.2017011010175, "timestamp": "2025-12-04T07:39:36.417433+00:00", "meta": {"OBJECT_NAME": "FENGYUN 1C DEB", "OBJECT_ID": "1999-025BVU", "EPOCH": "2025-12-03T01:16:02.255232", "MEAN_MOTION": 13.89712838, "ECCENTRICITY": 0.03465904, "INCLINATION": 98.3377, "RA_OF_ASC_NODE": 189.1974, "ARG_OF_PERICENTER": 248.3313, "MEAN_ANOMALY": 108.0609, "EPHEMERIS_TYPE": 0, "CLASSIFICATION_TYPE": "U", "NORAD_CAT_ID": 31480, "ELEMENT_SET_NO": 999, "REV_AT_EPOCH": 93261, "BSTAR": 0.0047376681, "MEAN_MOTION_DOT": 9.4e-05, "MEAN_MOTION_DDOT": 0}, "tle": {"line1": "1 31480U 99025BVU 25337.05280388  .00009400  00000+0  47377-2 0  9997", "line2": "2 31480  98.3377 189.1974 0346590 248.3313 108.0609 13.89712838932610"}}, "geometry": {"type": "Point", "coordinates": [6.250731436705817, -25.904634821824253]}}, {"type": "Feature", "properties": {"norad_id": 31482, "name": "FENGYUN 1C DEB", "group": "fengyun-1c-debris", "lat": -30.087209155033356, "lon": -12.68858107300375, "alt_km": 719.853718518867, "timestamp": "2025-12-04T07:39:36.417442+00:00", "meta": {"OBJECT_NAME": "FENGYUN 1C DEB", "OBJECT_ID": "1999-025BVW", "EPOCH": "2025-12-03T06:47:16.506816", "MEAN_MOTION": 14.35585898, "ECCENTRICITY": 0.0089088, "INCLINATION": 98.382, "RA_OF_ASC_NODE": 341.4038, "ARG_OF_PERICENTER": 310.7779, "MEAN_ANOMALY": 65.6558, "EPHEMERIS_TYPE": 0, "CLASSIFICATION_TYPE": "U", "NORAD_CAT_ID": 31482, "ELEMENT_SET_NO": 999, "REV_AT_EPOCH": 96994, "BSTAR": 0.0011353, "MEAN_MOTION_DOT": 3.379e-05, "MEAN_MOTION_DDOT": 0}, "tle": {"line1": "1 31482U 99025BVW 25337.28282994  .00003379  00000+0  11353-2 0  9993", "line2": "2 31482  98.3820 341.4038 0089088 310.7779  65.6558 14.35585898969948"}}, "geometry": {"type": "Point", "coordinates": [-12.68858107300375, -30.087209155033356]}}, {"type": "Feature", "properties": {"norad_id": 31483, "name": "FENGYUN 1C DEB", "group": "fengyun-1c-debris", "lat": 49.318094868983074, "lon": -89.72586491927689, "alt_km": 919.2274601523386, "timestamp": "2025-12-04T07:39:36.417451+00:00", "meta": {"OBJECT_NAME": "FENGYUN 1C DEB", "OBJECT_ID": "1999-025BVX", "EPOCH": "2025-12-03T08:24:30.284928", "MEAN_MOTION": 14.1583344, "ECCENTRICITY": 0.0119325, "INCLINATION": 102.5023, "RA_OF_ASC_NODE": 283.8786, "ARG_OF_PERICENTER": 244.5837, "MEAN_ANOMALY": 270.4752, "EPHEMERIS_TYPE": 0, "CLASSIFICATION_TYPE": "U", "NORAD_CAT_ID": 31483, "ELEMENT_SET_NO": 999, "REV_AT_EPOCH": 94573, "BSTAR": 0.0036394, "MEAN_MOTION_DOT": 7.603e-05, "MEAN_MOTION_DDOT": 0}, "tle": {"line1": "1 31483U 99025BVX 25337.35035052  .00007603  00000+0  36394-2 0  9999", "line2": "2 31483 102.5023 283.8786 0119325 244.5837 270.4752 14.15833440945738"}}, "geometry": {"type": "Point", "coordinates": [-89.72586491927689, 49.318094868983074]}}, {"type": "Feature", "properties": {"norad_id": 31484, "name": "FENGYUN 1C DEB", "group": "fengyun-1c-debris", "lat": 59.710767539678436, "lon": 112.34312856342979, "alt_km": 688.036114342568, "timestamp": "2025-12-04T07:39:36.417460+00:00", "meta": {"OBJECT_NAME": "FENGYUN 1C DEB", "OBJECT_ID": "1999-025BVY", "EPOCH": "2025-12-01T06:14:16.664640", "MEAN_MOTION": 14.4971956, "ECCENTRICITY": 0.00824182, "INCLINATION": 101.8049, "RA_OF_ASC_NODE": 267.0929, "ARG_OF_PERICENTER": 183.373, "MEAN_ANOMALY": 176.6905, "EPHEMERIS_TYPE": 0, "CLASSIFICATION_TYPE": "U", "NORAD_CAT_ID": 31484, "ELEMENT_SET_NO": 999, "REV_AT_EPOCH": 64071, "BSTAR": 0.0059253262, "MEAN_MOTION_DOT": 0.00023837, "MEAN_MOTION_DDOT": 0}, "tle": {"line1": "1 31484U 99025BVY 25335.25991510  .00023837  00000+0  59253-2 0  9993", "line2": "2 31484 101.8049 267.0929 0082418 183.3730 176.6905 14.49719560640716"}}, "geometry": {"type": "Point", "coordinates": [112.34312856342979, 59.710767539678436]}}, {"type": "Feature", "properties": {"norad_id": 31485, "name": "FENGYUN 1C DEB", "group": "fengyun-1c-debris", "lat": -56.64216885706059, "lon": -176.54018406724634, "alt_km": 841.1261068224003, "timestamp": "2025-12-04T07:39:36.417469+00:00", "meta": {"OBJECT_NAME": "FENGYUN 1C DEB", "OBJECT_ID": "1999-025BVZ", "EPOCH": "2025-12-02T18:18:04.263840", "MEAN_MOTION": 13.39966891, "ECCENTRICITY": 0.044543, "INCLINATION": 102.7192, "RA_OF_ASC_NODE": 161.4429, "ARG_OF_PERICENTER": 340.4326, "MEAN_ANOMALY": 18.0159, "EPHEMERIS_TYPE": 0, "CLASSIFICATION_TYPE": "U", "NORAD_CAT_ID": 31485, "ELEMENT_SET_NO": 999, "REV_AT_EPOCH": 90311, "BSTAR": 0.0039439887, "MEAN_MOTION_DOT": 3.774e-05, "MEAN_MOTION_DDOT": 0}, "tle": {"line1": "1 31485U 99025BVZ 25336.76254935  .00003774  00000+0  39440-2 0  9998", "line2": "2 31485 102.7192 161.4429 0445430 340.4326  18.0159 13.39966891903117"}}, "geometry": {"type": "Point", "coordinates": [-176.54018406724634, -56.64216885706059]}}, {"type": "Feature", "properties": {"norad_id": 31487, "name": "FENGYUN 1C DEB", "group": "fengyun-1c-debris", "lat": 60.76734011859856, "lon": -12.969595585996881, "alt_km": 971.1034015488431, "timestamp": "2025-12-04T07:39:36.417478+00:00", "meta": {"OBJECT_NAME": "FENGYUN 1C DEB", "OBJECT_ID": "1999-025BWB", "EPOCH": "2025-12-02T06:08:26.132064", "MEAN_MOTION": 13.97663121, "ECCENTRICITY": 0.0119744, "INCLINATION": 102.4135, "RA_OF_ASC_NODE": 141.0753, "ARG_OF_PERICENTER": 331.4925, "MEAN_ANOMALY": 207.6466, "EPHEMERIS_TYPE": 0, "CLASSIFICATION_TYPE": "U", "NORAD_CAT_ID": 31487, "ELEMENT_SET_NO": 999, "REV_AT_EPOCH": 94265, "BSTAR": 0.0016318, "MEAN_MOTION_DOT": 2.376e-05, "MEAN_MOTION_DDOT": 0}, "tle": {"line1": "1 31487U 99025BWB 25336.25585801  .00002376  00000+0  16318-2 0  9999", "line2": "2 31487 102.4135 141.0753 0119744 331.4925 207.6466 13.97663121942651"}}, "geometry": {"type": "Point", "coordinates": [-12.969595585996881, 60.76734011859856]}}, {"type": "Feature", "properties": {"norad_id": 31491, "name": "FENGYUN 1C DEB", "group": "fengyun-1c-debris", "lat": 80.55191627880086, "lon": 166.5070826188087, "alt_km": 862.7573715777125, "timestamp": "2025-12-04T07:39:36.417487+00:00", "meta": {"OBJECT_NAME": "FENGYUN 1C DEB", "OBJECT_ID": "1999-025BWE", "EPOCH": "2025-11-29T05:14:19.576896", "MEAN_MOTION": 14.17099923, "ECCENTRICITY": 0.00534374, "INCLINATION": 99.302, "RA_OF_ASC_NODE": 241.2001, "ARG_OF_PERICENTER": 306.7475, "MEAN_ANOMALY": 52.8798, "EPHEMERIS_TYPE": 0, "CLASSIFICATION_TYPE": "U", "NORAD_CAT_ID": 31491, "ELEMENT_SET_NO": 999, "REV_AT_EPOCH": 63536, "BSTAR": 0.0019103725, "MEAN_MOTION_DOT": 3.854e-05, "MEAN_MOTION_DDOT": 0}, "tle": {"line1": "1 31491U 99025BWE 25333.21828214  .00003854  00000+0  19104-2 0  9993", "line2": "2 31491  99.3020 241.2001 0053437 306.7475  52.8798 14.17099923635364"}}, "geometry": {"type": "Point", "coordinates": [166.5070826188087, 80.55191627880086]}}, {"type": "Feature", "properties": {"norad_id": 31492, "name": "FENGYUN 1C DEB", "group": "fengyun-1c-debris", "lat": 12.336136782317912, "lon": -34.434258849314226, "alt_km": 692.0384754723209, "timestamp": "2025-12-04T07:39:36.417496+00:00", "meta": {"OBJECT_NAME": "FENGYUN 1C DEB", "OBJECT_ID": "1999-025BWF", "EPOCH": "2025-11-30T16:19:50.588832", "MEAN_MOTION": 14.70037284, "ECCENTRICITY": 0.00642617, "INCLINATION": 98.8558, "RA_OF_ASC_NODE": 139.6647, "ARG_OF_PERICENTER": 46.3479, "MEAN_ANOMALY": 314.3027, "EPHEMERIS_TYPE": 0, "CLASSIFICATION_TYPE": "U", "NORAD_CAT_ID": 31492, "ELEMENT_SET_NO": 999, "REV_AT_EPOCH": 96329, "BSTAR": 0.0030343762, "MEAN_MOTION_DOT": 0.00018787, "MEAN_MOTION_DDOT": 0}, "tle": {"line1": "1 31492U 99025BWF 25334.68044663  .00018787  00000+0  30344-2 0  9994", "line2": "2 31492  98.8558 139.6647 0064261  46.3479 314.3027 14.70037284963297"}}, "geometry": {"type": "Point", "coordinates": [-34.434258849314226, 12.336136782317912]}}, {"type": "Feature", "properties": {"norad_id": 31493, "name": "FENGYUN 1C DEB", "group": "fengyun-1c-debris", "lat": -49.848554707439796, "lon": -64.33793465426204, "alt_km": 954.9162607257949, "timestamp": "2025-12-04T07:39:36.417505+00:00", "meta": {"OBJECT_NAME": "FENGYUN 1C DEB", "OBJECT_ID": "1999-025BWG", "EPOCH": "2025-12-02T16:15:30.729600", "MEAN_MOTION": 13.92937252, "ECCENTRICITY": 0.01169898, "INCLINATION": 100.135, "RA_OF_ASC_NODE": 281.6254, "ARG_OF_PERICENTER": 202.4097, "MEAN_ANOMALY": 157.1925, "EPHEMERIS_TYPE": 0, "CLASSIFICATION_TYPE": "U", "NORAD_CAT_ID": 31493, "ELEMENT_SET_NO": 999, "REV_AT_EPOCH": 59726, "BSTAR": 0.00081568072, "MEAN_MOTION_DOT": 1.068e-05, "MEAN_MOTION_DDOT": 0}, "tle": {"line1": "1 31493U 99025BWG 25336.67743900  .00001068  00000+0  81568-3 0  9995", "line2": "2 31493 100.1350 281.6254 0116989 202.4097 157.1925 13.92937252597260"}}, "geometry": {"type": "Point", "coordinates": [-64.33793465426204, -49.848554707439796]}}, {"type": "Feature", "properties": {"norad_id": 31495, "name": "FENGYUN 1C DEB", "group": "fengyun-1c-debris", "lat": 58.69933225481253, "lon": 46.42407448429818, "alt_km": 787.1254016790945, "timestamp": "2025-12-04T07:39:36.417514+00:00", "meta": {"OBJECT_NAME": "FENGYUN 1C DEB", "OBJECT_ID": "1999-025BWJ", "EPOCH": "2025-11-29T09:28:29.855136", "MEAN_MOTION": 14.2907414, "ECCENTRICITY": 0.00253264, "INCLINATION": 99.1199, "RA_OF_ASC_NODE": 205.9571, "ARG_OF_PERICENTER": 218.4335, "MEAN_ANOMALY": 141.5042, "EPHEMERIS_TYPE": 0, "CLASSIFICATION_TYPE": "U", "NORAD_CAT_ID": 31495, "ELEMENT_SET_NO": 999, "REV_AT_EPOCH": 63200, "BSTAR": 0.0012827316, "MEAN_MOTION_DOT": 3.214e-05, "MEAN_MOTION_DDOT": 0}, "tle": {"line1": "1 31495U 99025BWJ 25333.39478999  .00003214  00000+0  12827-2 0  9992", "line2": "2 31495  99.1199 205.9571 0025326 218.4335 141.5042 14.29074140632005"}}, "geometry": {"type": "Point", "coordinates": [46.42407448429818, 58.69933225481253]}}]}